#dP2024 10  8  6  0  0.00000000      96 __u+U IGS20 EXT  IAC
## 2335 194400.00000000   900.00000000 60591 0.2500000000000
+   53   G02G03G04G05G06G07G08G09G10G11G12G13G14G15G16G17G18
+        G19G20G21G22G23G24G25G26G27G28G29G30G31G32R01R02R03
+        R04R05R07R08R09R11R12R14R15R16R17R18R19R20R21R22R24
+        R25R26  0  0  0  0  0  0  0  0  0  0  0  0  0  0  0
+          0  0  0  0  0  0  0  0  0  0  0  0  0  0  0  0  0
++         6  8  8  6  6  7  7  8  5  8  7  6  8  6  8  8  6
++         8  8  7  8  8  7  7  8  7  7  7  7  6  6  6  7  9
++         7  8  6  7  7  9  8  8  9  7  6  7  8  7  8  7  9
++         8  8  0  0  0  0  0  0  0  0  0  0  0  0  0  0  0
++         0  0  0  0  0  0  0  0  0  0  0  0  0  0  0  0  0
%c M  cc GPS ccc cccc cccc cccc cccc ccccc ccccc ccccc ccccc
%c cc cc ccc ccc cccc cccc cccc cccc ccccc ccccc ccccc ccccc
%f  0.0000000  0.000000000  0.00000000000  0.000000000000000
%f  0.0000000  0.000000000  0.00000000000  0.000000000000000
%i    0    0    0    0      0      0      0      0         0
%i    0    0    0    0      0      0      0      0         0
/* IAC                                ULTRA-RAPID PREDICTION
/* S/V CLOCKS ARE ALIGNED TO GNSS TIME                      
/* G:C1WC2W R:C1PC2P E:C1XC5X C:C2IC6I J:C1CC2S             
/* PCV:IGS20_2317 OL/AL:FES2004  NONE     YN ORB:CoN CLK:CoN
*  2024 10 08 15 30  0.00000000
PG02 -13886.930723  16302.745498  15957.958628   -341.450953
PG03 -20861.003357  12817.906233 -10322.435329    563.853943
PG04 -11083.497547  10265.731685 -21832.636417    458.052628
PG05  25623.901372  -4368.166946  -5807.078115   -189.138106
PG06   6896.950203  18554.377440 -17587.379418    -23.984320
PG07  -5770.090715  25660.504801   1079.877100    -29.574929
PG08 -19457.405965   -165.453922  18153.189586    378.041968
PG09   -864.407496  17968.138355 -19612.341545    389.954975
PG10  -9863.026760 -12178.177156  21713.467946   -151.496410
PG11  14563.491171   3925.342948 -21826.040292   -742.239764
PG12  23597.746003  -9998.925507  -7158.920336   -543.701175
PG13  19968.690307   9877.754620  14409.449300    680.480762
PG14   5565.116872  14623.262357  21517.967556    513.068933
PG15  19077.739349  -2568.107215  17846.557906    213.374074
PG16 -25122.019838  -1945.235137  -9423.814959   -160.226301
PG17  12027.295538  22107.096793   8608.813600    602.225999
PG18   5830.692851 -25724.772616   1801.808855   -657.177019
PG19  17617.918981  20172.324926   -989.383367    547.989524
PG20  21279.898518   1914.473103 -15608.967101    369.871731
PG21 -15278.093183   9787.714778  19407.312212    100.192677
PG22  13353.287352  11765.623177  20027.317379    -69.225927
PG23   5080.628356 -15980.234121  20569.056464    337.276525
PG24  14302.870595 -14793.786769  16116.709884   -485.347790
PG25  13280.231667 -16282.063859 -16434.241625    499.572957
PG26 -17930.398325  -7836.790945 -18286.286663     60.686787
PG27 -21942.649424 -10731.116227  10643.297161    -34.420558
PG28  -6762.481097 -20278.439776 -15776.676185   -438.926026
PG29   4184.270557 -16473.578272 -20419.741252   -572.661597
PG30   1710.005165  24309.315974  10383.190087   -306.347226
PG31 -13250.910651  -8911.434426 -21407.054780   -223.668838
PG32 -14898.175125 -21042.593766   7030.114607   -589.030809
PR01 -16515.568224   3165.480462 -19183.426659    100.363518
PR02   -378.083543  11422.820023 -22758.432512    -25.075280
PR03  16468.931018  14029.405937 -13418.830823    109.020496
PR04  23630.892184   9123.679823   2925.603218    258.347624
PR05  18304.815880   -705.539024  17740.480049    138.852926
PR07 -16879.052704 -14051.479141  13058.224967     92.512612
PR08 -23749.878320  -8844.340751  -3036.839295     -6.428695
PR09  11741.608298 -18026.340471 -13752.401773    213.554896
PR11 -16186.794742    534.975721 -19688.972416      9.797953
PR12 -21178.913153  13815.227157  -3380.383159     45.778327
PR14   3550.981836  11139.408137  22681.774465     27.036842
PR15  17298.476266  -1699.939899  18692.341569     75.088257
PR16  21167.531304 -13800.385357   3634.397957     29.783779
PR17   6755.734626  22756.969854  -9390.378612    128.964691
PR18  10517.325546   9601.866505 -21131.666741    165.884832
PR19   9793.515749  -6234.280970 -22705.795398   -294.147249
PR20   2658.839432 -23685.317317  -9116.889766   -120.173610
PR21  -6216.574708 -23148.071645   8681.284996   -141.068812
PR22 -10819.070507  -8579.940185  21478.361651     26.565821
PR24  -1503.361758  23988.446572   8603.972848    -75.203679
PR25  -6195.303072 -22737.907638   9736.060554    -93.901354
PR26 -23646.020532  -9431.442991  -1454.706456     68.127364
*  2024 10 08 15 45  0.00000000
PG02 -13797.274202  14435.399741  17812.359555   -341.443590
PG03 -21874.139574  12954.137349  -7661.099837    563.864913
PG04 -12849.956303   8514.442011 -21629.717878    458.058822
PG05  24946.895707  -3904.640863  -8526.472663   -189.139181
PG06   6335.179649  20386.514402 -15663.945877    -24.008824
PG07  -6062.997790  25495.941863  -1782.425483    -29.571710
PG08 -20876.907579  -1567.562056  16480.285438    378.052642
PG09  -2657.008613  16540.526432 -20688.624848    389.969748
PG10  -7525.273726 -12926.802870  22186.701880   -151.508257
PG11  13903.116523   6332.181561 -21696.568407   -742.242657
PG12  24267.361400  -9910.311122  -4400.964543   -543.703539
PG13  20816.798041  11177.833620  12135.722972    680.482428
PG14   3203.623590  15302.874533  21506.214027    513.076535
PG15  20671.582965  -1278.067461  16195.970968    213.378067
PG16 -24029.004503  -2378.305352 -11896.889659   -160.217247
PG17  11118.224545  21480.599230  11176.935726    602.214688
PG18   6066.426258 -25707.095613  -1094.402265   -657.178382
PG19  17419.011730  20262.128667   1850.753556    547.993800
PG20  19675.976255   2968.296785 -17445.835909    369.871411
PG21 -15141.177142   7546.801222  20599.498717    100.191979
PG22  11151.333314  12348.981718  21045.219479    -69.229044
PG23   7263.988123 -16637.913247  19334.530408    337.283927
PG24  14288.950577 -12740.155451  17789.544945   -485.346827
PG25  14979.405395 -16636.477514 -14432.947740    499.572902
PG26 -16009.202668  -8775.569251 -19573.612785     60.678499
PG27 -22619.348162 -11620.810268   8091.426837    -34.420817
PG28  -6268.251621 -21897.778309 -13674.129001   -438.937804
PG29   5866.407107 -14791.206463 -21288.110267   -572.659166
PG30   1183.772497  25253.276112   7832.769530   -306.340573
PG31 -12608.711677 -11192.022390 -20670.719171   -223.668350
PG32 -14068.861685 -20584.892592   9661.528970   -589.026977
PR01 -18656.651629   2483.038865 -17219.637579    100.364653
PR02  -3000.922091  10332.345340 -23088.084688    -25.075649
PR03  14822.747508  13244.699618 -15903.991629    109.021065
PR04  23846.291659   9018.565306   -298.281499    258.349150
PR05  20249.452712    -36.825603  15496.707442    138.853427
PR07 -15293.699326 -13276.322652  15579.999211     92.513377
PR08 -23981.903655  -8757.472241    174.177861     -6.428752
PR09  12856.404912 -19080.190515 -11085.470400    213.556827
PR11 -14183.611899  -1001.571729 -21161.337970      9.797141
PR12 -20617.948558  13534.587702  -6509.960291     45.778737
PR14   1434.701456  12897.246607  21969.711719     27.036910
PR15  15376.498064   -252.183550  20373.271678     75.088085
PR16  20573.185374 -13518.241671   6764.584811     29.784003
PR17   7068.645797  23695.839846  -6355.393605    128.967729
PR18  10929.010742  12091.183217 -19587.141106    165.886426
PR19  10030.155145  -3405.632121 -23198.619877   -294.148469
PR20   2584.155250 -22366.024368 -12005.447562   -120.174205
PR21  -6517.150507 -23998.653603   5600.237766   -141.071726
PR22 -11146.673634 -11118.356291  20101.202739     26.556130
PR24  -1539.542714  22745.092899  11493.656504    -75.205106
PR25  -6431.840025 -23734.961921   6736.476689    -93.898125
PR26 -23689.755506  -9272.114895   1766.826935     68.151263
EOF
